[{"OBJECT_NAME":"STARLINK-4355","OBJECT_ID":"2022-077F","EPOCH":"2026-03-09T12:26:42.033120","MEAN_MOTION":15.05643548,"ECCENTRICITY":0.00014098,"INCLINATION":97.603,"RA_OF_ASC_NODE":251.082,"ARG_OF_PERICENTER":87.056,"MEAN_ANOMALY":273.0828,"EPHEMERIS_TYPE":0,"CLASSIFICATION_TYPE":"U","NORAD_CAT_ID":53048,"ELEMENT_SET_NO":999,"REV_AT_EPOCH":20095,"BSTAR":1.3313083e-5,"MEAN_MOTION_DOT":1.31e-6,"MEAN_MOTION_DDOT":0},{"OBJECT_NAME":"RAAF M1","OBJECT_ID":"2018-099X","EPOCH":"2026-03-09T15:51:10.230048","MEAN_MOTION":15.07065376,"ECCENTRICITY":0.00134971,"INCLINATION":97.4534,"RA_OF_ASC_NODE":114.8325,"ARG_OF_PERICENTER":21.6261,"MEAN_ANOMALY":338.5534,"EPHEMERIS_TYPE":0,"CLASSIFICATION_TYPE":"U","NORAD_CAT_ID":43779,"ELEMENT_SET_NO":999,"REV_AT_EPOCH":39714,"BSTAR":0.00026511092,"MEAN_MOTION_DOT":3.923e-5,"MEAN_MOTION_DDOT":0}]
